COSMOS 1933             
1 18958U 88020A   26051.65023330  .00002981  00000+0  14591-3 0  9997
2 18958  82.5104 267.7731 0002748 258.3578 101.7347 15.17822815 47649
SL-16 R/B               
1 19120U 88039B   26051.57601802 -.00000113  00000+0 -30686-4 0  9997
2 19120  71.0137 104.7378 0021685   0.0102   0.1020 14.19613816955955
SL-8 R/B                
1 19257U 88053B   26051.70272490  .00000214  00000+0  77958-4 0  9999
2 19257  74.0483 143.7761 0020905 325.7694 148.9451 14.38904708974155
COSMOS 1975             
1 19573U 88093A   26051.69723556  .00007390  00000+0  27088-3 0  9996
2 19573  82.5215 134.7362 0010738 224.7592 135.2782 15.27770090 16818
SL-14 R/B               
1 19574U 88093B   26051.43012142  .00000411  00000+0  44474-4 0  9997
2 19574  82.5280  58.2497 0022324  94.8729  20.3338 14.85634104998472
SL-16 R/B               
1 19650U 88102B   26051.74062101 -.00000119  00000+0 -35939-4 0  9990
2 19650  70.9996 187.1556 0013026  27.8451 332.3366 14.16151944924495
INTERCOSMOS 24          
1 20261U 89080A   26051.64607531  .00000557  00000+0  16323-3 0  9996
2 20261  82.6049 115.5005 1187305 332.4137  21.8468 12.59530628664654
DELTA 1 R/B             
1 20323U 89089B   26051.58361588  .00000269  00000+0  75236-4 0  9995
2 20323  97.0716 261.7416 0069196 175.5232 184.6600 14.50647718893250
