CCSDS_OMM_VERS = 2.0
CREATION_DATE  = 
ORIGINATOR     = 

OBJECT_NAME    = COSMOS 1933
OBJECT_ID      = 1988-020A
CENTER_NAME    = EARTH
REF_FRAME      = TEME
TIME_SYSTEM    = UTC
MEAN_ELEMENT_THEORY = SGP/SGP4

EPOCH          = 2026-02-20T15:36:20.157120
MEAN_MOTION    = 15.17822815
ECCENTRICITY   = .0002748
INCLINATION    = 82.5104
RA_OF_ASC_NODE = 267.7731
ARG_OF_PERICENTER = 258.3578
MEAN_ANOMALY   = 101.7347

EPHEMERIS_TYPE = 0
CLASSIFICATION_TYPE = U
NORAD_CAT_ID   = 18958
ELEMENT_SET_NO = 999
REV_AT_EPOCH   = 4764
BSTAR          = .14591E-3
MEAN_MOTION_DOT = .2981E-4
MEAN_MOTION_DDOT = 0

CCSDS_OMM_VERS = 2.0
CREATION_DATE  = 
ORIGINATOR     = 

OBJECT_NAME    = SL-16 R/B
OBJECT_ID      = 1988-039B
CENTER_NAME    = EARTH
REF_FRAME      = TEME
TIME_SYSTEM    = UTC
MEAN_ELEMENT_THEORY = SGP/SGP4

EPOCH          = 2026-02-20T13:49:27.956928
MEAN_MOTION    = 14.19613816
ECCENTRICITY   = .0021685
INCLINATION    = 71.0137
RA_OF_ASC_NODE = 104.7378
ARG_OF_PERICENTER = 0.0102
MEAN_ANOMALY   = 0.1020

EPHEMERIS_TYPE = 0
CLASSIFICATION_TYPE = U
NORAD_CAT_ID   = 19120
ELEMENT_SET_NO = 999
REV_AT_EPOCH   = 95595
BSTAR          = -.30686E-4
MEAN_MOTION_DOT = -.113E-5
MEAN_MOTION_DDOT = 0

CCSDS_OMM_VERS = 2.0
CREATION_DATE  = 
ORIGINATOR     = 

OBJECT_NAME    = SL-8 R/B
OBJECT_ID      = 1988-053B
CENTER_NAME    = EARTH
REF_FRAME      = TEME
TIME_SYSTEM    = UTC
MEAN_ELEMENT_THEORY = SGP/SGP4

EPOCH          = 2026-02-20T16:51:55.431360
MEAN_MOTION    = 14.38904708
ECCENTRICITY   = .0020905
INCLINATION    = 74.0483
RA_OF_ASC_NODE = 143.7761
ARG_OF_PERICENTER = 325.7694
MEAN_ANOMALY   = 148.9451

EPHEMERIS_TYPE = 0
CLASSIFICATION_TYPE = U
NORAD_CAT_ID   = 19257
ELEMENT_SET_NO = 999
REV_AT_EPOCH   = 97415
BSTAR          = .77958E-4
MEAN_MOTION_DOT = .214E-5
MEAN_MOTION_DDOT = 0

CCSDS_OMM_VERS = 2.0
CREATION_DATE  = 
ORIGINATOR     = 

OBJECT_NAME    = COSMOS 1975
OBJECT_ID      = 1988-093A
CENTER_NAME    = EARTH
REF_FRAME      = TEME
TIME_SYSTEM    = UTC
MEAN_ELEMENT_THEORY = SGP/SGP4

EPOCH          = 2026-02-20T16:44:01.152384
MEAN_MOTION    = 15.27770090
ECCENTRICITY   = .0010738
INCLINATION    = 82.5215
RA_OF_ASC_NODE = 134.7362
ARG_OF_PERICENTER = 224.7592
MEAN_ANOMALY   = 135.2782

EPHEMERIS_TYPE = 0
CLASSIFICATION_TYPE = U
NORAD_CAT_ID   = 19573
ELEMENT_SET_NO = 999
REV_AT_EPOCH   = 1681
BSTAR          = .27088E-3
MEAN_MOTION_DOT = .739E-4
MEAN_MOTION_DDOT = 0

CCSDS_OMM_VERS = 2.0
CREATION_DATE  = 
ORIGINATOR     = 

OBJECT_NAME    = SL-14 R/B
OBJECT_ID      = 1988-093B
CENTER_NAME    = EARTH
REF_FRAME      = TEME
TIME_SYSTEM    = UTC
MEAN_ELEMENT_THEORY = SGP/SGP4

EPOCH          = 2026-02-20T10:19:22.490688
MEAN_MOTION    = 14.85634104
ECCENTRICITY   = .0022324
INCLINATION    = 82.5280
RA_OF_ASC_NODE = 58.2497
ARG_OF_PERICENTER = 94.8729
MEAN_ANOMALY   = 20.3338

EPHEMERIS_TYPE = 0
CLASSIFICATION_TYPE = U
NORAD_CAT_ID   = 19574
ELEMENT_SET_NO = 999
REV_AT_EPOCH   = 99847
BSTAR          = .44474E-4
MEAN_MOTION_DOT = .411E-5
MEAN_MOTION_DDOT = 0

CCSDS_OMM_VERS = 2.0
CREATION_DATE  = 
ORIGINATOR     = 

OBJECT_NAME    = SL-16 R/B
OBJECT_ID      = 1988-102B
CENTER_NAME    = EARTH
REF_FRAME      = TEME
TIME_SYSTEM    = UTC
MEAN_ELEMENT_THEORY = SGP/SGP4

EPOCH          = 2026-02-20T17:46:29.655264
MEAN_MOTION    = 14.16151944
ECCENTRICITY   = .0013026
INCLINATION    = 70.9996
RA_OF_ASC_NODE = 187.1556
ARG_OF_PERICENTER = 27.8451
MEAN_ANOMALY   = 332.3366

EPHEMERIS_TYPE = 0
CLASSIFICATION_TYPE = U
NORAD_CAT_ID   = 19650
ELEMENT_SET_NO = 999
REV_AT_EPOCH   = 92449
BSTAR          = -.35939E-4
MEAN_MOTION_DOT = -.119E-5
MEAN_MOTION_DDOT = 0

CCSDS_OMM_VERS = 2.0
CREATION_DATE  = 
ORIGINATOR     = 

OBJECT_NAME    = INTERCOSMOS 24
OBJECT_ID      = 1989-080A
CENTER_NAME    = EARTH
REF_FRAME      = TEME
TIME_SYSTEM    = UTC
MEAN_ELEMENT_THEORY = SGP/SGP4

EPOCH          = 2026-02-20T15:30:20.906784
MEAN_MOTION    = 12.59530628
ECCENTRICITY   = .1187305
INCLINATION    = 82.6049
RA_OF_ASC_NODE = 115.5005
ARG_OF_PERICENTER = 332.4137
MEAN_ANOMALY   = 21.8468

EPHEMERIS_TYPE = 0
CLASSIFICATION_TYPE = U
NORAD_CAT_ID   = 20261
ELEMENT_SET_NO = 999
REV_AT_EPOCH   = 66465
BSTAR          = .16323E-3
MEAN_MOTION_DOT = .557E-5
MEAN_MOTION_DDOT = 0

CCSDS_OMM_VERS = 2.0
CREATION_DATE  = 
ORIGINATOR     = 

OBJECT_NAME    = DELTA 1 R/B
OBJECT_ID      = 1989-089B
CENTER_NAME    = EARTH
REF_FRAME      = TEME
TIME_SYSTEM    = UTC
MEAN_ELEMENT_THEORY = SGP/SGP4

EPOCH          = 2026-02-20T14:00:24.412032
MEAN_MOTION    = 14.50647718
ECCENTRICITY   = .0069196
INCLINATION    = 97.0716
RA_OF_ASC_NODE = 261.7416
ARG_OF_PERICENTER = 175.5232
MEAN_ANOMALY   = 184.6600

EPHEMERIS_TYPE = 0
CLASSIFICATION_TYPE = U
NORAD_CAT_ID   = 20323
ELEMENT_SET_NO = 999
REV_AT_EPOCH   = 89325
BSTAR          = .75236E-4
MEAN_MOTION_DOT = .269E-5
MEAN_MOTION_DDOT = 0

